NAYIF-1 (EO-88)         
1 42017U 17008BX  23096.17641083  .00103683  00000+0  13473-2 0  9990
2 42017  97.2208 165.4591 0003597 238.6522 121.4383 15.58445304342186
ZHUHAI-1 02 (CAS-4B)    
1 42759U 17034B   23096.56893409  .00012496  00000+0  64772-3 0  9996
2 42759  43.0173 153.4259 0011519 352.6204 154.8580 15.16059305320769
ZHUHAI-1 01 (CAS-4A)    
1 42761U 17034D   23096.44235201  .00011531  00000+0  59791-3 0  9990
2 42761  43.0159 152.6840 0011883 354.0033  84.6955 15.16102007320756
MAX VALIER SAT          
1 42778U 17036P   23095.64922232  .00023165  00000+0  67378-3 0  9994
2 42778  97.1664 132.3379 0008238  18.6829 341.4716 15.35408725321581
RADFXSAT (FOX-1B)       
1 43017U 17073E   23096.52095633  .00007916  00000+0  56547-3 0  9998
2 43017  97.6406 343.7022 0235364 306.0348  51.9259 14.85083492290542
FOX-1D (AO-92)          
1 43137U 18004AC  23095.78763244  .00035590  00000+0  86412-3 0  9996
2 43137  97.3335 174.4541 0005943  52.6469 307.5318 15.40919531291141
DIWATA-2B               
1 43678U 18084H   23096.35732531  .00003253  00000+0  31725-3 0  9991
2 43678  98.0078 238.9393 0010301  45.4648 314.7419 14.93145207241546
ES'HAIL 2               
1 43700U 18090A   23095.84771625  .00000150  00000+0  00000+0 0  9995
2 43700   0.0123 245.1812 0001220 150.2742 129.4213  1.00274525 15960
FOX-1CLIFF (AO-95)      
1 43770U 18099N   23095.82102392  .00005951  00000+0  49473-3 0  9993
2 43770  97.5792 159.3225 0013450  16.1058 344.0590 14.99010847236765
ITASAT 1                
1 43786U 18099AE  23096.14386570  .00004907  00000+0  41074-3 0  9997
2 43786  97.5847 160.6697 0014604  12.6415 347.5172 14.98821049236858
JY1SAT (JO-97)          
1 43803U 18099AX  23096.15649949  .00006357  00000+0  51591-3 0  9996
2 43803  97.5771 160.6124 0013430   0.0890   0.0333 14.99916243236899
UWE-4                   
1 43880U 18111E   23095.72999781  .00007977  00000+0  62358-3 0  9992
2 43880  97.6452   2.0603 0018322  62.4402 297.8681 15.01214966233490
NEXUS (FO-99)           
1 43937U 19003F   23096.27243101  .00046690  00000+0  97430-3 0  9999
2 43937  97.0962 124.7182 0016069 170.8193 189.3353 15.45261548234919
JAISAT-1                
1 44419U 19038F   23095.88995277  .00028182  00000+0  10722-2 0  9991
2 44419  97.6705  75.4150 0015304 184.8303 175.2789 15.26618074207491
DUCHIFAT-3              
1 44854U 19089C   23096.54822419  .00011765  00000+0  81708-3 0  9993
2 44854  36.9637 159.0433 0007728  93.7976  59.6386 15.04987975182037
CAS-6 (TIANQIN 1)       
1 44881U 19093C   23096.54727462  .00001780  00000+0  22881-3 0  9993
2 44881  97.8637 176.2193 0013842 316.0275  43.9834 14.82348569178184
RS-44 & BREEZE-KM R/B   
1 44909U 19096E   23095.82629610  .00000021  00000+0  42415-4 0  9996
2 44909  82.5251  36.0201 0217545 356.4843   3.4717 12.79719737152902
HUSKYSAT-1 (HO-107)     
1 45119U 19071J   23096.21938451  .01527019  16697-2  15423-2 0  9994
2 45119  51.6186  32.2917 0008156 176.9952 183.1113 16.10628248178992
BY70-2                  
1 45857U 20042B   23096.44434938  .00026977  00000+0  29685-2 0  9998
2 45857  97.9278 176.2463 0009202 230.9971 129.0268 14.87511693148866
SALSAT                  
1 46495U 20068K   23095.83151865  .00006283  00000+0  42313-3 0  9994
2 46495  97.7641  43.1390 0016215  13.6859 346.4804 15.06957883138172
BY70-3                  
1 46839U 20079N   23096.36045889  .08834687  23464-5  14923-2 0  9990
2 46839  97.1350 174.5599 0013427 271.3719 153.1038 16.32944071135764
RADFXSAT-2 (AO-109)     
1 47311U 21002C   23095.84652362  .00028826  00000+0  83687-3 0  9996
2 47311  60.6832 335.8640 0028473 137.0306 223.3018 15.34994168123168
UVSQ-SAT                
1 47438U 21006AB  23095.64079324  .00017780  00000+0  77900-3 0  9997
2 47438  97.3933 153.8805 0009218 343.9990  16.0954 15.22029126121604
DIY-1 (ARDUIQUBE)       
1 47963U 21022AH  23096.18225962  .00111290  00000+0  28517-2 0  9999
2 47963  97.5061   1.9808 0010423 166.6548 193.4975 15.38891382111448
XW-3 (CAS-9)            
1 50466U 21131B   23096.54459045  .00000971  00000+0  33023-3 0  9995
2 50466  98.5531 178.3156 0004108  11.9597 348.1687 14.38806771 67050
TEVEL-3                 
1 50988U 22002E   23096.48741781  .00025465  00000+0  11096-2 0  9996
2 50988  97.4408 164.0689 0009603 125.2286 350.8006 15.22137397 67849
TEVEL-8                 
1 50989U 22002F   23096.50476046  .00025492  00000+0  11127-2 0  9994
2 50989  97.4433 164.1394 0009716 123.5083   1.0574 15.22078139 67846
TEVEL-5                 
1 50998U 22002Q   23096.45720087  .00026326  00000+0  11229-2 0  9995
2 50998  97.4398 164.3455 0010949 122.0114 293.8711 15.22845187 67866
TEVEL-6                 
1 50999U 22002R   23096.46907678  .00026330  00000+0  11229-2 0  9995
2 50999  97.4396 164.3525 0010913 121.4975   7.1904 15.22850834 67867
TEVEL-1                 
1 51013U 22002AF  23096.49726861  .00025587  00000+0  11161-2 0  9997
2 51013  97.4407 164.0332 0009751 126.0930   1.1645 15.22100646 67844
TEVEL-7                 
1 51062U 22002CG  23096.44057094  .00025636  00000+0  11186-2 0  9993
2 51062  97.4418 164.0502 0009893 125.9467 357.9797 15.22086259 67831
TEVEL-4                 
1 51063U 22002CH  23096.50850030  .00025497  00000+0  11139-2 0  9995
2 51063  97.4421 164.1072 0009643 124.0235 350.3965 15.22049987 67847
TEVEL-2                 
1 51069U 22002CP  23096.48902390  .00025509  00000+0  11115-2 0  9993
2 51069  97.4401 164.0444 0009642 125.2159 349.3741 15.22138591 67840
GREENCUBE               
1 53106U 22080B   23088.05176028 -.00000003  00000+0  00000+0 0  9999
2 53106  70.1795 347.5677 0008286 204.3079 155.7190  6.42557135 16603
RS29S (SXC3-2110 CYCLO*)
1 53373U 22096D   23096.46890341  .00037044  00000+0  11128-2 0  9997
2 53373  97.4200   2.1574 0003600  74.5628  37.8605 15.34322185 36670
RS32S (SXC3-212 MONITO*)
1 53374U 22096E   23096.46161479  .00033980  00000+0  10334-2 0  9994
2 53374  97.4187   2.1206 0003604  68.2861 347.2891 15.33952647 36676
RS34S (SXC3-218 KUZBAS*)
1 53375U 22096F   23096.54875207  .00029265  00000+0  92996-3 0  9991
2 53375  97.4209   2.0560 0003585  68.5242  54.9312 15.32583375 36675
RS23S (SXC3-21 UTMN)    
1 53376U 22096G   23096.45653292  .00030353  00000+0  95171-3 0  9998
2 53376  97.4202   2.0093 0003472  69.0966  17.1915 15.33004097 36663
RS28S (SXC3-214 MIET-A*)
1 53377U 22096H   23096.41624126  .00027942  00000+0  89149-3 0  9997
2 53377  97.4203   1.9329 0003350  67.4523  58.7362 15.32465180 36650
RS26S (KAI-1)           
1 53378U 22096J   23096.46057841  .00022973  00000+0  75638-3 0  9994
2 53378  97.4222   1.8740 0003227  63.5490  51.7765 15.31494461 36654
RS19S (SXC3-219 ISOI)   
1 53381U 22096M   23096.53003939  .00027321  00000+0  85218-3 0  9992
2 53381  97.4199   2.2290 0002886   3.4180 121.9214 15.33194974 36685
RS21S (CUBESX-HSE-2)    
1 53383U 22096P   23096.44576968  .00029830  00000+0  92391-3 0  9998
2 53383  97.4204   2.1787 0003265   0.6289  86.5513 15.33399388 36678
RS30S (SXC3-217 SIREN)  
1 53384U 22096Q   23096.42581962  .00025248  00000+0  80534-3 0  9992
2 53384  97.4217   2.0724 0003012 354.8178 125.4342 15.32494140 36667
RS20S (GEOSCAN-EDELVEIS)
1 53385U 22096R   23096.43926213  .00038686  00000+0  11117-2 0  9996
2 53385  97.4199   2.4928 0003247 358.7033 117.6784 15.35715069 36729
RS33S (SXC3-215 VIZARD) 
1 53386U 22096S   23096.48219075  .00048817  00000+0  13018-2 0  9992
2 53386  97.4195   2.8645 0003392 357.0756  58.1369 15.37987094 36742
CAS-5A (FO-118)         
1 54684U 22167C   23096.54942772  .00017491  00000+0  10150-2 0  9995
2 54684  97.5489 234.7585 0013992 219.0582 269.7562 15.12125998 17846
